[{"OBJECT_NAME":"UNKNOWN","OBJECT_ID":"","EPOCH":"2026-02-26T11:56:22.259040","MEAN_MOTION":11.48026764,"ECCENTRICITY":0.06982932,"INCLINATION":65.7383,"RA_OF_ASC_NODE":351.8824,"ARG_OF_PERICENTER":170.9615,"MEAN_ANOMALY":190.4693,"EPHEMERIS_TYPE":0,"CLASSIFICATION_TYPE":"U","NORAD_CAT_ID":270167,"ELEMENT_SET_NO":999,"REV_AT_EPOCH":26179,"BSTAR":-5.0455715e-5,"MEAN_MOTION_DOT":-4.6e-7,"MEAN_MOTION_DDOT":0},{"OBJECT_NAME":"UNKNOWN","OBJECT_ID":"","EPOCH":"2026-03-08T06:50:36.045024","MEAN_MOTION":13.430186,"ECCENTRICITY":0.02055608,"INCLINATION":82.9986,"RA_OF_ASC_NODE":84.0722,"ARG_OF_PERICENTER":326.7119,"MEAN_ANOMALY":32.1226,"EPHEMERIS_TYPE":0,"CLASSIFICATION_TYPE":"U","NORAD_CAT_ID":270169,"ELEMENT_SET_NO":999,"REV_AT_EPOCH":30758,"BSTAR":0.0013727164,"MEAN_MOTION_DOT":8.99e-6,"MEAN_MOTION_DDOT":0},{"OBJECT_NAME":"UNKNOWN","OBJECT_ID":"","EPOCH":"2026-03-09T21:16:51.883104","MEAN_MOTION":14.85749821,"ECCENTRICITY":0.00038762,"INCLINATION":86.6085,"RA_OF_ASC_NODE":28.7394,"ARG_OF_PERICENTER":90.0646,"MEAN_ANOMALY":270.1023,"EPHEMERIS_TYPE":0,"CLASSIFICATION_TYPE":"U","NORAD_CAT_ID":270173,"ELEMENT_SET_NO":999,"REV_AT_EPOCH":33699,"BSTAR":0.00060006126,"MEAN_MOTION_DOT":5.236e-5,"MEAN_MOTION_DDOT":0},{"OBJECT_NAME":"UNKNOWN","OBJECT_ID":"","EPOCH":"2026-03-01T22:34:00.212736","MEAN_MOTION":11.49748393,"ECCENTRICITY":0.09526609,"INCLINATION":63.3943,"RA_OF_ASC_NODE":309.3844,"ARG_OF_PERICENTER":317.9587,"MEAN_ANOMALY":35.1885,"EPHEMERIS_TYPE":0,"CLASSIFICATION_TYPE":"U","NORAD_CAT_ID":270174,"ELEMENT_SET_NO":999,"REV_AT_EPOCH":26305,"BSTAR":-0.00059375719,"MEAN_MOTION_DOT":-1.3e-6,"MEAN_MOTION_DDOT":0},{"OBJECT_NAME":"UNKNOWN","OBJECT_ID":"","EPOCH":"2026-03-02T01:11:11.069952","MEAN_MOTION":13.04495247,"ECCENTRICITY":0.00305057,"INCLINATION":90.2299,"RA_OF_ASC_NODE":354.6364,"ARG_OF_PERICENTER":126.8857,"MEAN_ANOMALY":233.507,"EPHEMERIS_TYPE":0,"CLASSIFICATION_TYPE":"U","NORAD_CAT_ID":270176,"ELEMENT_SET_NO":999,"REV_AT_EPOCH":29681,"BSTAR":0.0018302714,"MEAN_MOTION_DOT":5.96e-6,"MEAN_MOTION_DDOT":0},{"OBJECT_NAME":"UNKNOWN","OBJECT_ID":"","EPOCH":"2026-03-10T05:50:25.165248","MEAN_MOTION":14.38522854,"ECCENTRICITY":0.00340307,"INCLINATION":98.6272,"RA_OF_ASC_NODE":75.165,"ARG_OF_PERICENTER":106.8993,"MEAN_ANOMALY":253.593,"EPHEMERIS_TYPE":0,"CLASSIFICATION_TYPE":"U","NORAD_CAT_ID":270179,"ELEMENT_SET_NO":999,"REV_AT_EPOCH":32818,"BSTAR":0.00019872523,"MEAN_MOTION_DOT":5.67e-6,"MEAN_MOTION_DDOT":0},{"OBJECT_NAME":"UNKNOWN","OBJECT_ID":"","EPOCH":"2026-02-28T11:01:44.273280","MEAN_MOTION":12.92575059,"ECCENTRICITY":0.06927877,"INCLINATION":72.9891,"RA_OF_ASC_NODE":323.226,"ARG_OF_PERICENTER":252.3339,"MEAN_ANOMALY":100.0972,"EPHEMERIS_TYPE":0,"CLASSIFICATION_TYPE":"U","NORAD_CAT_ID":270181,"ELEMENT_SET_NO":999,"REV_AT_EPOCH":29386,"BSTAR":-0.00015416991,"MEAN_MOTION_DOT":-1.52e-6,"MEAN_MOTION_DDOT":0},{"OBJECT_NAME":"UNKNOWN","OBJECT_ID":"","EPOCH":"2026-03-08T13:11:04.627968","MEAN_MOTION":13.01436516,"ECCENTRICITY":0.00367304,"INCLINATION":90.2461,"RA_OF_ASC_NODE":357.3873,"ARG_OF_PERICENTER":146.6136,"MEAN_ANOMALY":213.7313,"EPHEMERIS_TYPE":0,"CLASSIFICATION_TYPE":"U","NORAD_CAT_ID":270183,"ELEMENT_SET_NO":999,"REV_AT_EPOCH":29722,"BSTAR":0.0036575648,"MEAN_MOTION_DOT":1.134e-5,"MEAN_MOTION_DDOT":0},{"OBJECT_NAME":"UNKNOWN","OBJECT_ID":"","EPOCH":"2026-03-09T06:26:31.821504","MEAN_MOTION":12.96066536,"ECCENTRICITY":0.00357002,"INCLINATION":90.2434,"RA_OF_ASC_NODE":3.3732,"ARG_OF_PERICENTER":73.8824,"MEAN_ANOMALY":286.6221,"EPHEMERIS_TYPE":0,"CLASSIFICATION_TYPE":"U","NORAD_CAT_ID":270184,"ELEMENT_SET_NO":999,"REV_AT_EPOCH":29570,"BSTAR":0.0023542102,"MEAN_MOTION_DOT":6.79e-6,"MEAN_MOTION_DDOT":0},{"OBJECT_NAME":"UNKNOWN","OBJECT_ID":"","EPOCH":"2026-03-08T03:06:27.644832","MEAN_MOTION":13.09040996,"ECCENTRICITY":0.00218427,"INCLINATION":90.3321,"RA_OF_ASC_NODE":31.3406,"ARG_OF_PERICENTER":212.3792,"MEAN_ANOMALY":147.5996,"EPHEMERIS_TYPE":0,"CLASSIFICATION_TYPE":"U","NORAD_CAT_ID":270186,"ELEMENT_SET_NO":999,"REV_AT_EPOCH":29945,"BSTAR":0.0017306961,"MEAN_MOTION_DOT":6.01e-6,"MEAN_MOTION_DDOT":0},{"OBJECT_NAME":"UNKNOWN","OBJECT_ID":"","EPOCH":"2026-03-09T03:44:07.775520","MEAN_MOTION":11.13601189,"ECCENTRICITY":0.10684728,"INCLINATION":63.412,"RA_OF_ASC_NODE":42.2982,"ARG_OF_PERICENTER":300.5984,"MEAN_ANOMALY":49.3748,"EPHEMERIS_TYPE":0,"CLASSIFICATION_TYPE":"U","NORAD_CAT_ID":270189,"ELEMENT_SET_NO":999,"REV_AT_EPOCH":25530,"BSTAR":-0.00016381043,"MEAN_MOTION_DOT":-6.3e-7,"MEAN_MOTION_DDOT":0},{"OBJECT_NAME":"UNKNOWN","OBJECT_ID":"","EPOCH":"2026-02-28T14:03:41.001408","MEAN_MOTION":12.91475583,"ECCENTRICITY":0.02224704,"INCLINATION":62.8995,"RA_OF_ASC_NODE":183.0165,"ARG_OF_PERICENTER":295.5924,"MEAN_ANOMALY":62.2228,"EPHEMERIS_TYPE":0,"CLASSIFICATION_TYPE":"U","NORAD_CAT_ID":270191,"ELEMENT_SET_NO":999,"REV_AT_EPOCH":29499,"BSTAR":0.00094667606,"MEAN_MOTION_DOT":2.02e-6,"MEAN_MOTION_DDOT":0},{"OBJECT_NAME":"UNKNOWN","OBJECT_ID":"","EPOCH":"2026-03-05T02:39:11.792160","MEAN_MOTION":12.97930446,"ECCENTRICITY":0.00191341,"INCLINATION":90.256,"RA_OF_ASC_NODE":4.514,"ARG_OF_PERICENTER":338.4837,"MEAN_ANOMALY":21.5478,"EPHEMERIS_TYPE":0,"CLASSIFICATION_TYPE":"U","NORAD_CAT_ID":270192,"ELEMENT_SET_NO":999,"REV_AT_EPOCH":29655,"BSTAR":0.0037835817,"MEAN_MOTION_DOT":1.113e-5,"MEAN_MOTION_DDOT":0},{"OBJECT_NAME":"UNKNOWN","OBJECT_ID":"","EPOCH":"2026-02-28T08:59:35.063232","MEAN_MOTION":13.46165054,"ECCENTRICITY":0.00520272,"INCLINATION":100.4357,"RA_OF_ASC_NODE":297.4068,"ARG_OF_PERICENTER":265.3379,"MEAN_ANOMALY":94.1807,"EPHEMERIS_TYPE":0,"CLASSIFICATION_TYPE":"U","NORAD_CAT_ID":270194,"ELEMENT_SET_NO":999,"REV_AT_EPOCH":30669,"BSTAR":0.0026641497,"MEAN_MOTION_DOT":1.56e-5,"MEAN_MOTION_DDOT":0},{"OBJECT_NAME":"UNKNOWN","OBJECT_ID":"","EPOCH":"2026-02-24T02:25:56.159616","MEAN_MOTION":12.9698085,"ECCENTRICITY":0.0029106,"INCLINATION":90.2436,"RA_OF_ASC_NODE":6.4265,"ARG_OF_PERICENTER":311.3758,"MEAN_ANOMALY":48.486,"EPHEMERIS_TYPE":0,"CLASSIFICATION_TYPE":"U","NORAD_CAT_ID":270195,"ELEMENT_SET_NO":999,"REV_AT_EPOCH":29358,"BSTAR":0.00024473644,"MEAN_MOTION_DOT":7.8e-7,"MEAN_MOTION_DDOT":0},{"OBJECT_NAME":"UNKNOWN","OBJECT_ID":"","EPOCH":"2026-02-21T07:43:55.513056","MEAN_MOTION":13.95000845,"ECCENTRICITY":0.00567035,"INCLINATION":64.6928,"RA_OF_ASC_NODE":278.4844,"ARG_OF_PERICENTER":206.1249,"MEAN_ANOMALY":153.6951,"EPHEMERIS_TYPE":0,"CLASSIFICATION_TYPE":"U","NORAD_CAT_ID":270196,"ELEMENT_SET_NO":999,"REV_AT_EPOCH":31712,"BSTAR":0.0003596702,"MEAN_MOTION_DOT":3.98e-6,"MEAN_MOTION_DDOT":0},{"OBJECT_NAME":"UNKNOWN","OBJECT_ID":"","EPOCH":"2026-02-26T01:58:10.058304","MEAN_MOTION":13.86798562,"ECCENTRICITY":0.03663794,"INCLINATION":97.5735,"RA_OF_ASC_NODE":9.2695,"ARG_OF_PERICENTER":37.4818,"MEAN_ANOMALY":325.1296,"EPHEMERIS_TYPE":0,"CLASSIFICATION_TYPE":"U","NORAD_CAT_ID":270197,"ELEMENT_SET_NO":999,"REV_AT_EPOCH":31385,"BSTAR":0.0028391326,"MEAN_MOTION_DOT":5.6e-5,"MEAN_MOTION_DDOT":0},{"OBJECT_NAME":"UNKNOWN","OBJECT_ID":"","EPOCH":"2026-03-05T06:46:30.248256","MEAN_MOTION":13.12592746,"ECCENTRICITY":0.05994259,"INCLINATION":72.7164,"RA_OF_ASC_NODE":279.0707,"ARG_OF_PERICENTER":216.3381,"MEAN_ANOMALY":139.557,"EPHEMERIS_TYPE":0,"CLASSIFICATION_TYPE":"U","NORAD_CAT_ID":270199,"ELEMENT_SET_NO":999,"REV_AT_EPOCH":29794,"BSTAR":0.0037122265,"MEAN_MOTION_DOT":3.286e-5,"MEAN_MOTION_DDOT":0},{"OBJECT_NAME":"UNKNOWN","OBJECT_ID":"","EPOCH":"2026-03-06T14:14:38.559840","MEAN_MOTION":12.95749022,"ECCENTRICITY":0.00343306,"INCLINATION":90.2535,"RA_OF_ASC_NODE":11.5843,"ARG_OF_PERICENTER":78.6868,"MEAN_ANOMALY":281.8107,"EPHEMERIS_TYPE":0,"CLASSIFICATION_TYPE":"U","NORAD_CAT_ID":270200,"ELEMENT_SET_NO":999,"REV_AT_EPOCH":29487,"BSTAR":0.0014731453,"MEAN_MOTION_DOT":4.26e-6,"MEAN_MOTION_DDOT":0},{"OBJECT_NAME":"UNKNOWN","OBJECT_ID":"","EPOCH":"2026-03-08T01:04:57.700128","MEAN_MOTION":14.02970764,"ECCENTRICITY":0.00324257,"INCLINATION":82.5345,"RA_OF_ASC_NODE":1.0385,"ARG_OF_PERICENTER":37.8073,"MEAN_ANOMALY":322.5367,"EPHEMERIS_TYPE":0,"CLASSIFICATION_TYPE":"U","NORAD_CAT_ID":270202,"ELEMENT_SET_NO":999,"REV_AT_EPOCH":31960,"BSTAR":0.0028141816,"MEAN_MOTION_DOT":4.401e-5,"MEAN_MOTION_DDOT":0},{"OBJECT_NAME":"UNKNOWN","OBJECT_ID":"","EPOCH":"2026-03-08T21:58:47.349984","MEAN_MOTION":14.37260169,"ECCENTRICITY":0.00021537,"INCLINATION":86.3968,"RA_OF_ASC_NODE":33.798,"ARG_OF_PERICENTER":86.8072,"MEAN_ANOMALY":273.3372,"EPHEMERIS_TYPE":0,"CLASSIFICATION_TYPE":"U","NORAD_CAT_ID":270209,"ELEMENT_SET_NO":999,"REV_AT_EPOCH":32614,"BSTAR":0.00029272792,"MEAN_MOTION_DOT":8.91e-6,"MEAN_MOTION_DDOT":0},{"OBJECT_NAME":"UNKNOWN","OBJECT_ID":"","EPOCH":"2026-03-08T01:23:35.190816","MEAN_MOTION":14.37319918,"ECCENTRICITY":0.00017379,"INCLINATION":86.4021,"RA_OF_ASC_NODE":2.4905,"ARG_OF_PERICENTER":92.7542,"MEAN_ANOMALY":267.3855,"EPHEMERIS_TYPE":0,"CLASSIFICATION_TYPE":"U","NORAD_CAT_ID":270210,"ELEMENT_SET_NO":999,"REV_AT_EPOCH":32605,"BSTAR":0.00030237323,"MEAN_MOTION_DOT":9.21e-6,"MEAN_MOTION_DDOT":0},{"OBJECT_NAME":"UNKNOWN","OBJECT_ID":"","EPOCH":"2026-02-15T07:03:07.855488","MEAN_MOTION":12.88822397,"ECCENTRICITY":0.02134001,"INCLINATION":82.4829,"RA_OF_ASC_NODE":247.9343,"ARG_OF_PERICENTER":208.5316,"MEAN_ANOMALY":150.3977,"EPHEMERIS_TYPE":0,"CLASSIFICATION_TYPE":"U","NORAD_CAT_ID":270211,"ELEMENT_SET_NO":999,"REV_AT_EPOCH":29207,"BSTAR":0.0001736945,"MEAN_MOTION_DOT":6.0e-7,"MEAN_MOTION_DDOT":0},{"OBJECT_NAME":"UNKNOWN","OBJECT_ID":"","EPOCH":"2026-03-02T05:25:46.653888","MEAN_MOTION":12.56935333,"ECCENTRICITY":0.00292192,"INCLINATION":101.94,"RA_OF_ASC_NODE":46.5468,"ARG_OF_PERICENTER":64.1827,"MEAN_ANOMALY":296.2256,"EPHEMERIS_TYPE":0,"CLASSIFICATION_TYPE":"U","NORAD_CAT_ID":270219,"ELEMENT_SET_NO":999,"REV_AT_EPOCH":28545,"BSTAR":0.0001790253,"MEAN_MOTION_DOT":-1.7e-7,"MEAN_MOTION_DDOT":0}]
